{"type": "FeatureCollection", "features": [ {"type": "Feature", "properties": {"norad_id": 38054, "name": "COSMOS 2251 DEB", "group": "cosmos-2251-debris", "lat": 41.29769948804854, "lon": -94.62883447107212, "alt_km": 1287.5625094546458, "timestamp": "2025-12-21T22:41:41.857001+00:00", "meta": {"OBJECT_NAME": "COSMOS 2251 DEB", "OBJECT_ID": "1993-036BRL", "EPOCH": "2025-12-20T18:35:17.689920", "MEAN_MOTION": 13.62376854, "ECCENTRICITY": 0.03575009, "INCLINATION": 73.9533, "RA_OF_ASC_NODE": 252.6421, "ARG_OF_PERICENTER": 229.1382, "MEAN_ANOMALY": 192.3982, "EPHEMERIS_TYPE": 0, "CLASSIFICATION_TYPE": "U", "NORAD_CAT_ID": 38054, "ELEMENT_SET_NO": 999, "REV_AT_EPOCH": 67289, "BSTAR": 0.0012229004, "MEAN_MOTION_DOT": 1.432e-05, "MEAN_MOTION_DDOT": 0}, "tle": {"line1": "1 38054U 93036BRL 25354.77451030  .00001432  00000+0  12229-2 0  9994", "line2": "2 38054  73.9533 252.6421 0357500 229.1382 192.3982 13.62376854672892"}}, "geometry": {"type": "Point", "coordinates": [-94.62883447107212, 41.29769948804854]}}, {"type": "Feature", "properties": {"norad_id": 38055, "name": "COSMOS 2251 DEB", "group": "cosmos-2251-debris", "lat": 8.32421430492625, "lon": 6.274429663278466, "alt_km": 676.9983922814818, "timestamp": "2025-12-21T22:41:41.857011+00:00", "meta": {"OBJECT_NAME": "COSMOS 2251 DEB", "OBJECT_ID": "1993-036BRM", "EPOCH": "2025-12-20T07:43:08.868288", "MEAN_MOTION": 14.77047435, "ECCENTRICITY": 0.00660367, "INCLINATION": 74.0077, "RA_OF_ASC_NODE": 191.8677, "ARG_OF_PERICENTER": 317.7505, "MEAN_ANOMALY": 222.1264, "EPHEMERIS_TYPE": 0, "CLASSIFICATION_TYPE": "U", "NORAD_CAT_ID": 38055, "ELEMENT_SET_NO": 999, "REV_AT_EPOCH": 60794, "BSTAR": 0.00044182386, "MEAN_MOTION_DOT": 3.197e-05, "MEAN_MOTION_DDOT": 0}, "tle": {"line1": "1 38055U 93036BRM 25354.32163042  .00003197  00000+0  44182-3 0  9993", "line2": "2 38055  74.0077 191.8677 0066036 317.7505 222.1264 14.77047435607943"}}, "geometry": {"type": "Point", "coordinates": [6.274429663278466, 8.32421430492625]}}, {"type": "Feature", "properties": {"norad_id": 38060, "name": "COSMOS 2251 DEB", "group": "cosmos-2251-debris", "lat": -37.43359206897398, "lon": -95.01450072317013, "alt_km": 666.036968600959, "timestamp": "2025-12-21T22:41:41.857021+00:00", "meta": {"OBJECT_NAME": "COSMOS 2251 DEB", "OBJECT_ID": "1993-036BRS", "EPOCH": "2025-12-21T01:33:01.988640", "MEAN_MOTION": 14.63900324, "ECCENTRICITY": 0.00584879, "INCLINATION": 74.0436, "RA_OF_ASC_NODE": 279.3269, "ARG_OF_PERICENTER": 23.1556, "MEAN_ANOMALY": 337.2227, "EPHEMERIS_TYPE": 0, "CLASSIFICATION_TYPE": "U", "NORAD_CAT_ID": 38060, "ELEMENT_SET_NO": 999, "REV_AT_EPOCH": 72086, "BSTAR": 0.00036511571, "MEAN_MOTION_DOT": 1.926e-05, "MEAN_MOTION_DDOT": 0}, "tle": {"line1": "1 38060U 93036BRS 25355.06460635  .00001926  00000+0  36512-3 0  9995", "line2": "2 38060  74.0436 279.3269 0058487  23.1556 337.2227 14.63900324720866"}}, "geometry": {"type": "Point", "coordinates": [-95.01450072317013, -37.43359206897398]}}, {"type": "Feature", "properties": {"norad_id": 38062, "name": "COSMOS 2251 DEB", "group": "cosmos-2251-debris", "lat": -58.657281150023394, "lon": 119.96202043763269, "alt_km": 596.6428492192872, "timestamp": "2025-12-21T22:41:41.857031+00:00", "meta": {"OBJECT_NAME": "COSMOS 2251 DEB", "OBJECT_ID": "1993-036BRU", "EPOCH": "2025-12-20T12:40:12.328608", "MEAN_MOTION": 14.95206267, "ECCENTRICITY": 0.00129431, "INCLINATION": 74.0088, "RA_OF_ASC_NODE": 274.7346, "ARG_OF_PERICENTER": 42.7602, "MEAN_ANOMALY": 131.9089, "EPHEMERIS_TYPE": 0, "CLASSIFICATION_TYPE": "U", "NORAD_CAT_ID": 38062, "ELEMENT_SET_NO": 999, "REV_AT_EPOCH": 63146, "BSTAR": 0.0014745207, "MEAN_MOTION_DOT": 0.00016237, "MEAN_MOTION_DDOT": 0}, "tle": {"line1": "1 38062U 93036BRU 25354.52792047  .00016237  00000+0  14745-2 0  9996", "line2": "2 38062  74.0088 274.7346 0012943  42.7602 131.9089 14.95206267631464"}}, "geometry": {"type": "Point", "coordinates": [119.96202043763269, -58.657281150023394]}}, {"type": "Feature", "properties": {"norad_id": 38064, "name": "COSMOS 2251 DEB", "group": "cosmos-2251-debris", "lat": -39.18052399896356, "lon": 93.15549292572425, "alt_km": 713.4475968673632, "timestamp": "2025-12-21T22:41:41.857040+00:00", "meta": {"OBJECT_NAME": "COSMOS 2251 DEB", "OBJECT_ID": "1993-036BRW", "EPOCH": "2025-12-21T14:38:27.145824", "MEAN_MOTION": 14.56367522, "ECCENTRICITY": 0.00471421, "INCLINATION": 74.0231, "RA_OF_ASC_NODE": 107.2956, "ARG_OF_PERICENTER": 225.3304, "MEAN_ANOMALY": 134.4015, "EPHEMERIS_TYPE": 0, "CLASSIFICATION_TYPE": "U", "NORAD_CAT_ID": 38064, "ELEMENT_SET_NO": 999, "REV_AT_EPOCH": 71994, "BSTAR": 0.00076532387, "MEAN_MOTION_DOT": 3.417e-05, "MEAN_MOTION_DDOT": 0}, "tle": {"line1": "1 38064U 93036BRW 25355.61003641  .00003417  00000+0  76532-3 0  9993", "line2": "2 38064  74.0231 107.2956 0047142 225.3304 134.4015 14.56367522719946"}}, "geometry": {"type": "Point", "coordinates": [93.15549292572425, -39.18052399896356]}}, {"type": "Feature", "properties": {"norad_id": 38067, "name": "COSMOS 2251 DEB", "group": "cosmos-2251-debris", "lat": 71.9379974779989, "lon": 15.37839072972741, "alt_km": 654.6716477995224, "timestamp": "2025-12-21T22:41:41.857050+00:00", "meta": {"OBJECT_NAME": "COSMOS 2251 DEB", "OBJECT_ID": "1993-036BRZ", "EPOCH": "2025-12-20T00:18:38.290752", "MEAN_MOTION": 14.61151533, "ECCENTRICITY": 0.00696951, "INCLINATION": 74.0171, "RA_OF_ASC_NODE": 260.5817, "ARG_OF_PERICENTER": 46.2502, "MEAN_ANOMALY": 329.5601, "EPHEMERIS_TYPE": 0, "CLASSIFICATION_TYPE": "U", "NORAD_CAT_ID": 38067, "ELEMENT_SET_NO": 999, "REV_AT_EPOCH": 62662, "BSTAR": 0.00024256948, "MEAN_MOTION_DOT": 1.204e-05, "MEAN_MOTION_DDOT": 0}, "tle": {"line1": "1 38067U 93036BRZ 25354.01294318  .00001204  00000+0  24257-3 0  9991", "line2": "2 38067  74.0171 260.5817 0069695  46.2502 329.5601 14.61151533626627"}}, "geometry": {"type": "Point", "coordinates": [15.37839072972741, 71.9379974779989]}}, {"type": "Feature", "properties": {"norad_id": 38068, "name": "COSMOS 2251 DEB", "group": "cosmos-2251-debris", "lat": 65.20749007907827, "lon": 73.00570192795384, "alt_km": 765.2484630987828, "timestamp": "2025-12-21T22:41:41.857060+00:00", "meta": {"OBJECT_NAME": "COSMOS 2251 DEB", "OBJECT_ID": "1993-036BSA", "EPOCH": "2025-11-26T00:12:22.263264", "MEAN_MOTION": 14.35960004, "ECCENTRICITY": 0.00240903, "INCLINATION": 74.0219, "RA_OF_ASC_NODE": 338.9788, "ARG_OF_PERICENTER": 72.1007, "MEAN_ANOMALY": 288.2769, "EPHEMERIS_TYPE": 0, "CLASSIFICATION_TYPE": "U", "NORAD_CAT_ID": 38068, "ELEMENT_SET_NO": 999, "REV_AT_EPOCH": 66406, "BSTAR": 0.00028750999, "MEAN_MOTION_DOT": 8.11e-06, "MEAN_MOTION_DDOT": 0}, "tle": {"line1": "1 38068U 93036BSA 25330.00859101  .00000811  00000+0  28751-3 0  9998", "line2": "2 38068  74.0219 338.9788 0024090  72.1007 288.2769 14.35960004664064"}}, "geometry": {"type": "Point", "coordinates": [73.00570192795384, 65.20749007907827]}}, {"type": "Feature", "properties": {"norad_id": 38197, "name": "COSMOS 2251 DEB", "group": "cosmos-2251-debris", "lat": -67.41155396024351, "lon": -64.8694605496921, "alt_km": 625.5901780643826, "timestamp": "2025-12-21T22:41:41.857070+00:00", "meta": {"OBJECT_NAME": "COSMOS 2251 DEB", "OBJECT_ID": "1993-036BSM", "EPOCH": "2025-12-21T05:07:08.655168", "MEAN_MOTION": 14.743947, "ECCENTRICITY": 0.01250141, "INCLINATION": 73.9376, "RA_OF_ASC_NODE": 340.4011, "ARG_OF_PERICENTER": 215.8524, "MEAN_ANOMALY": 143.4214, "EPHEMERIS_TYPE": 0, "CLASSIFICATION_TYPE": "U", "NORAD_CAT_ID": 38197, "ELEMENT_SET_NO": 999, "REV_AT_EPOCH": 85880, "BSTAR": 0.0020186352, "MEAN_MOTION_DOT": 0.00015188, "MEAN_MOTION_DDOT": 0}, "tle": {"line1": "1 38197U 93036BSM 25355.21329462  .00015188  00000+0  20186-2 0  9999", "line2": "2 38197  73.9376 340.4011 0125014 215.8524 143.4214 14.74394700858805"}}, "geometry": {"type": "Point", "coordinates": [-64.8694605496921, -67.41155396024351]}}, {"type": "Feature", "properties": {"norad_id": 38199, "name": "COSMOS 2251 DEB", "group": "cosmos-2251-debris", "lat": 51.4605141052691, "lon": 68.24020915890536, "alt_km": 969.0070635742059, "timestamp": "2025-12-21T22:41:41.857081+00:00", "meta": {"OBJECT_NAME": "COSMOS 2251 DEB", "OBJECT_ID": "1993-036BSP", "EPOCH": "2025-12-21T11:53:06.796320", "MEAN_MOTION": 13.64805558, "ECCENTRICITY": 0.03700621, "INCLINATION": 73.9558, "RA_OF_ASC_NODE": 47.8032, "ARG_OF_PERICENTER": 332.5446, "MEAN_ANOMALY": 25.6532, "EPHEMERIS_TYPE": 0, "CLASSIFICATION_TYPE": "U", "NORAD_CAT_ID": 38199, "ELEMENT_SET_NO": 999, "REV_AT_EPOCH": 61141, "BSTAR": 0.00052194647, "MEAN_MOTION_DOT": 6.47e-06, "MEAN_MOTION_DDOT": 0}, "tle": {"line1": "1 38199U 93036BSP 25355.49521755  .00000647  00000+0  52195-3 0  9990", "line2": "2 38199  73.9558  47.8032 0370062 332.5446  25.6532 13.64805558611419"}}, "geometry": {"type": "Point", "coordinates": [68.24020915890536, 51.4605141052691]}}, {"type": "Feature", "properties": {"norad_id": 38208, "name": "COSMOS 2251 DEB", "group": "cosmos-2251-debris", "lat": -17.977398738900966, "lon": -114.02685287141747, "alt_km": 620.226447162243, "timestamp": "2025-12-21T22:41:41.857091+00:00", "meta": {"OBJECT_NAME": "COSMOS 2251 DEB", "OBJECT_ID": "1993-036BSY", "EPOCH": "2025-12-16T00:13:39.722592", "MEAN_MOTION": 14.84023361, "ECCENTRICITY": 0.00017369, "INCLINATION": 74.0064, "RA_OF_ASC_NODE": 72.4172, "ARG_OF_PERICENTER": 150.2716, "MEAN_ANOMALY": 26.1687, "EPHEMERIS_TYPE": 0, "CLASSIFICATION_TYPE": "U", "NORAD_CAT_ID": 38208, "ELEMENT_SET_NO": 999, "REV_AT_EPOCH": 71207, "BSTAR": 0.0016436813, "MEAN_MOTION_DOT": 0.00013687, "MEAN_MOTION_DDOT": 0}, "tle": {"line1": "1 38208U 93036BSY 25350.00948753  .00013687  00000+0  16437-2 0  9990", "line2": "2 38208  74.0064  72.4172 0001736 150.2716  26.1687 14.84023361712075"}}, "geometry": {"type": "Point", "coordinates": [-114.02685287141747, -17.977398738900966]}}]}